{
  "type": "FeatureCollection",
  "features": [
    {
      "type": "Feature",
      "properties": {
        "norad_id": 28054,
        "name": "DMSP 5D-3 F16 (USA 172)",
        "group": "weather",
        "lat": -0.7599958205424207,
        "lon": -174.87056561948634,
        "alt_km": 850.6933661309049,
        "timestamp": "2025-12-13T18:50:04.070919+00:00",
        "meta_object_name": "DMSP 5D-3 F16 (USA 172)",
        "meta_object_id": "2003-048A",
        "meta_epoch": "2025-12-13T07:50:43.671840",
        "meta_mean_motion": 14.14424539,
        "meta_eccentricity": 0.00064764,
        "meta_inclination": 99.0047,
        "meta_ra_of_asc_node": 4.7885,
        "meta_arg_of_pericenter": 319.0874,
        "meta_mean_anomaly": 51.4437,
        "meta_ephemeris_type": 0,
        "meta_classification_type": "U",
        "meta_norad_cat_id": 28054,
        "meta_element_set_no": 999,
        "meta_rev_at_epoch": 14321,
        "meta_bstar": 0.00014209477,
        "meta_mean_motion_dot": 2.27e-06,
        "meta_mean_motion_ddot": 0,
        "tle_line1": "1 28054U 03048A   25347.32689435  .00000227  00000+0  14209-3 0  9994",
        "tle_line2": "2 28054  99.0047   4.7885 0006476 319.0874  51.4437 14.14424539143219"
      },
      "geometry": {
        "type": "Point",
        "coordinates": [
          -174.87056561948634,
          -0.7599958205424207
        ]
      }
    },
    {
      "type": "Feature",
      "properties": {
        "norad_id": 28912,
        "name": "METEOSAT-9 (MSG-2)",
        "group": "weather",
        "lat": -0.76728901193198,
        "lon": 50.99158337570134,
        "alt_km": 35799.331116267975,
        "timestamp": "2025-12-13T18:50:04.070974+00:00",
        "meta_object_name": "METEOSAT-9 (MSG-2)",
        "meta_object_id": "2005-049B",
        "meta_epoch": "2025-12-12T20:32:45.552192",
        "meta_mean_motion": 1.00276669,
        "meta_eccentricity": 0.00035766,
        "meta_inclination": 8.9401,
        "meta_ra_of_asc_node": 55.9765,
        "meta_arg_of_pericenter": 190.0838,
        "meta_mean_anomaly": 189.6047,
        "meta_ephemeris_type": 0,
        "meta_classification_type": "U",
        "meta_norad_cat_id": 28912,
        "meta_element_set_no": 999,
        "meta_rev_at_epoch": 513,
        "meta_bstar": 0,
        "meta_mean_motion_dot": 1.32e-06,
        "meta_mean_motion_ddot": 0,
        "tle_line1": "1 28912U 05049B   25346.85608278  .00000132  00000+0  00000+0 0  9998",
        "tle_line2": "2 28912   8.9401  55.9765 0003576 190.0838 189.6047  1.00276669  5134"
      },
      "geometry": {
        "type": "Point",
        "coordinates": [
          50.99158337570134,
          -0.76728901193198
        ]
      }
    },
    {
      "type": "Feature",
      "properties": {
        "norad_id": 29522,
        "name": "DMSP 5D-3 F17 (USA 191)",
        "group": "weather",
        "lat": 56.11319073336151,
        "lon": -173.6081273856532,
        "alt_km": 838.2314142080077,
        "timestamp": "2025-12-13T18:50:04.070992+00:00",
        "meta_object_name": "DMSP 5D-3 F17 (USA 191)",
        "meta_object_id": "2006-050A",
        "meta_epoch": "2025-12-13T06:22:30.260928",
        "meta_mean_motion": 14.14919992,
        "meta_eccentricity": 0.00094305,
        "meta_inclination": 98.7394,
        "meta_ra_of_asc_node": 352.6438,
        "meta_arg_of_pericenter": 223.2167,
        "meta_mean_anomaly": 136.8267,
        "meta_ephemeris_type": 0,
        "meta_classification_type": "U",
        "meta_norad_cat_id": 29522,
        "meta_element_set_no": 999,
        "meta_rev_at_epoch": 98612,
        "meta_bstar": 0.00017158865,
        "meta_mean_motion_dot": 2.88e-06,
        "meta_mean_motion_ddot": 0,
        "tle_line1": "1 29522U 06050A   25347.26562802  .00000288  00000+0  17159-3 0  9996",
        "tle_line2": "2 29522  98.7394 352.6438 0009430 223.2167 136.8267 14.14919992986120"
      },
      "geometry": {
        "type": "Point",
        "coordinates": [
          -173.6081273856532,
          56.11319073336151
        ]
      }
    },
    {
      "type": "Feature",
      "properties": {
        "norad_id": 32958,
        "name": "FENGYUN 3A",
        "group": "weather",
        "lat": -33.76135102560975,
        "lon": 101.43548415678669,
        "alt_km": 833.4327638471259,
        "timestamp": "2025-12-13T18:50:04.071006+00:00",
        "meta_object_name": "FENGYUN 3A",
        "meta_object_id": "2008-026A",
        "meta_epoch": "2025-12-13T07:40:41.304864",
        "meta_mean_motion": 14.1951503,
        "meta_eccentricity": 0.00078866,
        "meta_inclination": 98.6698,
        "meta_ra_of_asc_node": 286.8345,
        "meta_arg_of_pericenter": 308.6006,
        "meta_mean_anomaly": 51.4464,
        "meta_ephemeris_type": 0,
        "meta_classification_type": "U",
        "meta_norad_cat_id": 32958,
        "meta_element_set_no": 999,
        "meta_rev_at_epoch": 90903,
        "meta_bstar": 0.00011796677,
        "meta_mean_motion_dot": 2.05e-06,
        "meta_mean_motion_ddot": 0,
        "tle_line1": "1 32958U 08026A   25347.31992251  .00000205  00000+0  11797-3 0  9990",
        "tle_line2": "2 32958  98.6698 286.8345 0007886 308.6006  51.4464 14.19515030909037"
      },
      "geometry": {
        "type": "Point",
        "coordinates": [
          101.43548415678669,
          -33.76135102560975
        ]
      }
    },
    {
      "type": "Feature",
      "properties": {
        "norad_id": 35491,
        "name": "GOES 14",
        "group": "weather",
        "lat": 0.20100878301302758,
        "lon": -105.18960786916713,
        "alt_km": 35832.26564257279,
        "timestamp": "2025-12-13T18:50:04.071021+00:00",
        "meta_object_name": "GOES 14",
        "meta_object_id": "2009-033A",
        "meta_epoch": "2025-12-13T06:17:59.074656",
        "meta_mean_motion": 1.00096153,
        "meta_eccentricity": 7.333e-05,
        "meta_inclination": 1.2041,
        "meta_ra_of_asc_node": 85.3893,
        "meta_arg_of_pericenter": 163.7878,
        "meta_mean_anomaly": 177.4312,
        "meta_ephemeris_type": 0,
        "meta_classification_type": "U",
        "meta_norad_cat_id": 35491,
        "meta_element_set_no": 999,
        "meta_rev_at_epoch": 472,
        "meta_bstar": 0,
        "meta_mean_motion_dot": -1.6e-07,
        "meta_mean_motion_ddot": 0,
        "tle_line1": "1 35491U 09033A   25347.26248929 -.00000016  00000+0  00000+0 0  9996",
        "tle_line2": "2 35491   1.2041  85.3893 0000733 163.7878 177.4312  1.00096153  4724"
      },
      "geometry": {
        "type": "Point",
        "coordinates": [
          -105.18960786916713,
          0.20100878301302758
        ]
      }
    },
    {
      "type": "Feature",
      "properties": {
        "norad_id": 35951,
        "name": "DMSP 5D-3 F18 (USA 210)",
        "group": "weather",
        "lat": -10.356054910478537,
        "lon": -34.18196028546938,
        "alt_km": 844.2932024868796,
        "timestamp": "2025-12-13T18:50:04.071034+00:00",
        "meta_object_name": "DMSP 5D-3 F18 (USA 210)",
        "meta_object_id": "2009-057A",
        "meta_epoch": "2025-12-13T05:18:18.580032",
        "meta_mean_motion": 14.14769423,
        "meta_eccentricity": 0.00120517,
        "meta_inclination": 98.8835,
        "meta_ra_of_asc_node": 323.6194,
        "meta_arg_of_pericenter": 61.487,
        "meta_mean_anomaly": 298.7515,
        "meta_ephemeris_type": 0,
        "meta_classification_type": "U",
        "meta_norad_cat_id": 35951,
        "meta_element_set_no": 999,
        "meta_rev_at_epoch": 83329,
        "meta_bstar": 0.00021291234,
        "meta_mean_motion_dot": 3.66e-06,
        "meta_mean_motion_ddot": 0,
        "tle_line1": "1 35951U 09057A   25347.22104838  .00000366  00000+0  21291-3 0  9995",
        "tle_line2": "2 35951  98.8835 323.6194 0012051  61.4870 298.7515 14.14769423833292"
      },
      "geometry": {
        "type": "Point",
        "coordinates": [
          -34.18196028546938,
          -10.356054910478537
        ]
      }
    },
    {
      "type": "Feature",
      "properties": {
        "norad_id": 36411,
        "name": "EWS-G2 (GOES 15)",
        "group": "weather",
        "lat": -0.2510870048234558,
        "lon": 66.6395404289556,
        "alt_km": 35810.00238169377,
        "timestamp": "2025-12-13T18:50:04.071047+00:00",
        "meta_object_name": "EWS-G2 (GOES 15)",
        "meta_object_id": "2010-008A",
        "meta_epoch": "2025-12-13T05:10:49.301760",
        "meta_mean_motion": 1.00269961,
        "meta_eccentricity": 0.00057064,
        "meta_inclination": 0.8153,
        "meta_ra_of_asc_node": 86.0659,
        "meta_arg_of_pericenter": 174.865,
        "meta_mean_anomaly": 320.3294,
        "meta_ephemeris_type": 0,
        "meta_classification_type": "U",
        "meta_norad_cat_id": 36411,
        "meta_element_set_no": 999,
        "meta_rev_at_epoch": 5777,
        "meta_bstar": 0,
        "meta_mean_motion_dot": 5.2e-07,
        "meta_mean_motion_ddot": 0,
        "tle_line1": "1 36411U 10008A   25347.21584840  .00000052  00000+0  00000+0 0  9992",
        "tle_line2": "2 36411   0.8153  86.0659 0005706 174.8650 320.3294  1.00269961 57770"
      },
      "geometry": {
        "type": "Point",
        "coordinates": [
          66.6395404289556,
          -0.2510870048234558
        ]
      }
    }
  ]
}